start=new Date('2021-10-07T00:00:00.000Z').valueOf();
sats=[{"CENTER_NAME":"EARTH","GP_ID":"186424232","APOAPSIS":"548.114","COUNTRY_CODE":"US","OBJECT_NAME":"STARLINK-2152","EPHEMERIS_TYPE":"0","MEAN_MOTION_DDOT":"0.0000000000000","BSTAR":"0.00011001000000","CLASSIFICATION_TYPE":"U","INCLINATION":"53.0556","SEMIMAJOR_AXIS":"6925.353","RA_OF_ASC_NODE":"261.7326","EPOCH":"2021-10-06T16:04:16.841568","ELEMENT_SET_NO":"999","MEAN_MOTION":"15.06398687","TLE_LINE2":"2 47740  53.0556 261.7326 0001294  75.4997 284.6135 15.06398687 34359","SITE":"AFETR","OBJECT_TYPE":"PAYLOAD","PERIOD":"95.592","PERIAPSIS":"546.321","DECAY_DATE":null,"TIME_SYSTEM":"UTC","ECCENTRICITY":"0.00012940","TLE_LINE1":"1 47740U 21017U   21279.66963937  .00001357  00000-0  11001-3 0  9995","LAUNCH_DATE":"2021-03-04","RCS_SIZE":"LARGE","OBJECT_ID":"2021-017U","NORAD_CAT_ID":"47740","REF_FRAME":"TEME","MEAN_MOTION_DOT":"0.00001357","ARG_OF_PERICENTER":"75.4997","FILE":"3148521","MEAN_ANOMALY":"284.6135","MEAN_ELEMENT_THEORY":"SGP4","REV_AT_EPOCH":"3435"},{"CENTER_NAME":"EARTH","GP_ID":"186424482","APOAPSIS":"548.211","OBJECT_NAME":"STARLINK-2154","EPHEMERIS_TYPE":"0","MEAN_MOTION_DDOT":"0.0000000000000","COUNTRY_CODE":"US","BSTAR":"-0.00002990700000","CLASSIFICATION_TYPE":"U","ELEMENT_SET_NO":"999","EPOCH":"2021-10-06T16:25:31.044576","RA_OF_ASC_NODE":"261.6630","SEMIMAJOR_AXIS":"6925.377","INCLINATION":"53.0551","PERIAPSIS":"546.273","SITE":"AFETR","OBJECT_TYPE":"PAYLOAD","PERIOD":"95.593","MEAN_MOTION":"15.06390679","TLE_LINE2":"2 47741  53.0551 261.6630 0001399  69.7821 290.3318 15.06390679 34316","ECCENTRICITY":"0.00013990","TIME_SYSTEM":"UTC","DECAY_DATE":null,"RCS_SIZE":"LARGE","TLE_LINE1":"1 47741U 21017V   21279.68438709 -.00000727  00000-0 -29907-4 0  9999","LAUNCH_DATE":"2021-03-04","MEAN_ANOMALY":"290.3318","MEAN_ELEMENT_THEORY":"SGP4","REV_AT_EPOCH":"3431","FILE":"3148521","MEAN_MOTION_DOT":"-0.00000727","ARG_OF_PERICENTER":"69.7821","OBJECT_ID":"2021-017V","NORAD_CAT_ID":"47741","REF_FRAME":"TEME"},{"DECAY_DATE":null,"TIME_SYSTEM":"UTC","ECCENTRICITY":"0.00013950","PERIOD":"95.592","SITE":"AFETR","OBJECT_TYPE":"PAYLOAD","MEAN_MOTION":"15.06399940","TLE_LINE2":"2 47742  53.0571 251.9043 0001395  67.9072 292.2065 15.06399940 34492","PERIAPSIS":"546.248","MEAN_MOTION_DOT":"0.00001805","ARG_OF_PERICENTER":"67.9072","NORAD_CAT_ID":"47742","REF_FRAME":"TEME","OBJECT_ID":"2021-017W","REV_AT_EPOCH":"3449","MEAN_ANOMALY":"292.2065","MEAN_ELEMENT_THEORY":"SGP4","FILE":"3148521","RCS_SIZE":"LARGE","LAUNCH_DATE":"2021-03-04","TLE_LINE1":"1 47742U 21017W   21279.63000950  .00001805  00000-0  14004-3 0  9995","COUNTRY_CODE":"US","MEAN_MOTION_DDOT":"0.0000000000000","EPHEMERIS_TYPE":"0","OBJECT_NAME":"STARLINK-2156","APOAPSIS":"548.180","GP_ID":"186425733","CENTER_NAME":"EARTH","EPOCH":"2021-10-06T15:07:12.820800","RA_OF_ASC_NODE":"251.9043","SEMIMAJOR_AXIS":"6925.349","INCLINATION":"53.0571","ELEMENT_SET_NO":"999","CLASSIFICATION_TYPE":"U","BSTAR":"0.00014004000000"},{"COUNTRY_CODE":"US","MEAN_MOTION_DDOT":"0.0000000000000","EPHEMERIS_TYPE":"0","OBJECT_NAME":"STARLINK-2157","APOAPSIS":"548.196","CENTER_NAME":"EARTH","GP_ID":"186425984","INCLINATION":"53.0551","SEMIMAJOR_AXIS":"6925.384","EPOCH":"2021-10-06T15:44:23.528832","RA_OF_ASC_NODE":"251.7733","ELEMENT_SET_NO":"999","BSTAR":"0.00011247000000","CLASSIFICATION_TYPE":"U","DECAY_DATE":null,"TIME_SYSTEM":"UTC","ECCENTRICITY":"0.00013670","TLE_LINE2":"2 47743  53.0551 251.7733 0001367  81.1027 279.0117 15.06388434 34477","MEAN_MOTION":"15.06388434","PERIOD":"95.593","OBJECT_TYPE":"PAYLOAD","SITE":"AFETR","PERIAPSIS":"546.302","NORAD_CAT_ID":"47743","REF_FRAME":"TEME","OBJECT_ID":"2021-017X","ARG_OF_PERICENTER":"81.1027","MEAN_MOTION_DOT":"0.00001394","FILE":"3148521","REV_AT_EPOCH":"3447","MEAN_ANOMALY":"279.0117","MEAN_ELEMENT_THEORY":"SGP4","LAUNCH_DATE":"2021-03-04","TLE_LINE1":"1 47743U 21017X   21279.65582788  .00001394  00000-0  11247-3 0  9991","RCS_SIZE":"LARGE"},{"BSTAR":"0.00001304400000","CLASSIFICATION_TYPE":"U","RA_OF_ASC_NODE":"251.8842","EPOCH":"2021-10-06T15:12:32.535360","INCLINATION":"53.0565","SEMIMAJOR_AXIS":"6925.376","ELEMENT_SET_NO":"999","GP_ID":"186424732","CENTER_NAME":"EARTH","APOAPSIS":"548.170","COUNTRY_CODE":"US","OBJECT_NAME":"STARLINK-2158","EPHEMERIS_TYPE":"0","MEAN_MOTION_DDOT":"0.0000000000000","RCS_SIZE":"LARGE","TLE_LINE1":"1 47744U 21017Y   21279.63370990 -.00000087  00000-0  13044-4 0  9997","LAUNCH_DATE":"2021-03-04","ARG_OF_PERICENTER":"76.5807","MEAN_MOTION_DOT":"-0.00000087","OBJECT_ID":"2021-017Y","NORAD_CAT_ID":"47744","REF_FRAME":"TEME","MEAN_ANOMALY":"283.5331","MEAN_ELEMENT_THEORY":"SGP4","REV_AT_EPOCH":"3449","FILE":"3148521","SITE":"AFETR","OBJECT_TYPE":"PAYLOAD","PERIOD":"95.593","MEAN_MOTION":"15.06391016","TLE_LINE2":"2 47744  53.0565 251.8842 0001341  76.5807 283.5331 15.06391016 34491","PERIAPSIS":"546.312","DECAY_DATE":null,"TIME_SYSTEM":"UTC","ECCENTRICITY":"0.00013410"},{"REV_AT_EPOCH":"3430","MEAN_ELEMENT_THEORY":"SGP4","MEAN_ANOMALY":"291.5693","FILE":"3148521","ARG_OF_PERICENTER":"68.5457","MEAN_MOTION_DOT":"0.00001625","NORAD_CAT_ID":"47745","REF_FRAME":"TEME","OBJECT_ID":"2021-017Z","RCS_SIZE":"LARGE","LAUNCH_DATE":"2021-03-04","TLE_LINE1":"1 47745U 21017Z   21279.66226781  .00001625  00000-0  12800-3 0  9995","TIME_SYSTEM":"UTC","ECCENTRICITY":"0.00015130","DECAY_DATE":null,"PERIAPSIS":"546.182","PERIOD":"95.592","SITE":"AFETR","OBJECT_TYPE":"PAYLOAD","MEAN_MOTION":"15.06394583","TLE_LINE2":"2 47745  53.0562 261.7665 0001513  68.5457 291.5693 15.06394583 34307","ELEMENT_SET_NO":"999","EPOCH":"2021-10-06T15:53:39.938784","RA_OF_ASC_NODE":"261.7665","INCLINATION":"53.0562","SEMIMAJOR_AXIS":"6925.365","BSTAR":"0.00012800000000","CLASSIFICATION_TYPE":"U","MEAN_MOTION_DDOT":"0.0000000000000","OBJECT_NAME":"STARLINK-2159","EPHEMERIS_TYPE":"0","COUNTRY_CODE":"US","APOAPSIS":"548.278","CENTER_NAME":"EARTH","GP_ID":"186424982"},{"APOAPSIS":"548.361","CENTER_NAME":"EARTH","GP_ID":"186425234","COUNTRY_CODE":"US","MEAN_MOTION_DDOT":"0.0000000000000","OBJECT_NAME":"STARLINK-2160","EPHEMERIS_TYPE":"0","BSTAR":"0.00017391000000","CLASSIFICATION_TYPE":"U","SEMIMAJOR_AXIS":"6925.351","INCLINATION":"53.0547","RA_OF_ASC_NODE":"261.7787","EPOCH":"2021-10-06T15:43:02.906400","ELEMENT_SET_NO":"999","MEAN_MOTION":"15.06399182","TLE_LINE2":"2 47746  53.0547 261.7787 0001653  71.5569 288.5600 15.06399182 34291","PERIOD":"95.592","SITE":"AFETR","OBJECT_TYPE":"PAYLOAD","PERIAPSIS":"546.071","DECAY_DATE":null,"TIME_SYSTEM":"UTC","ECCENTRICITY":"0.00016530","LAUNCH_DATE":"2021-03-04","TLE_LINE1":"1 47746U 21017AA  21279.65489475  .00002310  00000-0  17391-3 0  9998","RCS_SIZE":"LARGE","NORAD_CAT_ID":"47746","REF_FRAME":"TEME","OBJECT_ID":"2021-017AA","MEAN_MOTION_DOT":"0.00002310","ARG_OF_PERICENTER":"71.5569","FILE":"3148521","REV_AT_EPOCH":"3429","MEAN_ELEMENT_THEORY":"SGP4","MEAN_ANOMALY":"288.5600"},{"ECCENTRICITY":"0.00013640","TIME_SYSTEM":"UTC","DECAY_DATE":null,"PERIAPSIS":"546.292","TLE_LINE2":"2 47747  53.0569 251.8025 0001364  69.9871 290.1265 15.06392452 34476","MEAN_MOTION":"15.06392452","PERIOD":"95.593","OBJECT_TYPE":"PAYLOAD","SITE":"AFETR","FILE":"3148521","REV_AT_EPOCH":"3447","MEAN_ANOMALY":"290.1265","MEAN_ELEMENT_THEORY":"SGP4","NORAD_CAT_ID":"47747","REF_FRAME":"TEME","OBJECT_ID":"2021-017AB","MEAN_MOTION_DOT":"-0.00000363","ARG_OF_PERICENTER":"69.9871","LAUNCH_DATE":"2021-03-04","TLE_LINE1":"1 47747U 21017AB  21279.65213915 -.00000363  00000-0 -54544-5 0  9994","RCS_SIZE":"LARGE","MEAN_MOTION_DDOT":"0.0000000000000","OBJECT_NAME":"STARLINK-2161","EPHEMERIS_TYPE":"0","COUNTRY_CODE":"US","APOAPSIS":"548.181","CENTER_NAME":"EARTH","GP_ID":"186425485","ELEMENT_SET_NO":"999","SEMIMAJOR_AXIS":"6925.372","INCLINATION":"53.0569","EPOCH":"2021-10-06T15:39:04.822560","RA_OF_ASC_NODE":"251.8025","BSTAR":"-0.00000545440000","CLASSIFICATION_TYPE":"U"},{"ECCENTRICITY":"0.00012170","TIME_SYSTEM":"UTC","DECAY_DATE":null,"PERIAPSIS":"546.403","MEAN_MOTION":"15.06389320","TLE_LINE2":"2 47748  53.0570 253.3257 0001217  73.6874 286.4248 15.06389320 34395","PERIOD":"95.593","OBJECT_TYPE":"PAYLOAD","SITE":"AFETR","FILE":"3147912","REV_AT_EPOCH":"3439","MEAN_ANOMALY":"286.4248","MEAN_ELEMENT_THEORY":"SGP4","NORAD_CAT_ID":"47748","REF_FRAME":"TEME","OBJECT_ID":"2021-017AC","MEAN_MOTION_DOT":"-0.00000096","ARG_OF_PERICENTER":"73.6874","LAUNCH_DATE":"2021-03-04","TLE_LINE1":"1 47748U 21017AC  21279.31303056 -.00000096  00000-0  12470-4 0  9997","RCS_SIZE":"LARGE","MEAN_MOTION_DDOT":"0.0000000000000","EPHEMERIS_TYPE":"0","OBJECT_NAME":"STARLINK-2162","COUNTRY_CODE":"US","APOAPSIS":"548.089","CENTER_NAME":"EARTH","GP_ID":"186363933","ELEMENT_SET_NO":"999","INCLINATION":"53.0570","SEMIMAJOR_AXIS":"6925.381","RA_OF_ASC_NODE":"253.3257","EPOCH":"2021-10-06T07:30:45.840384","CLASSIFICATION_TYPE":"U","BSTAR":"0.00001247000000"},{"EPHEMERIS_TYPE":"0","OBJECT_NAME":"STARLINK-2163","MEAN_MOTION_DDOT":"0.0000000000000","COUNTRY_CODE":"US","GP_ID":"186424483","CENTER_NAME":"EARTH","APOAPSIS":"548.244","ELEMENT_SET_NO":"999","INCLINATION":"53.0552","SEMIMAJOR_AXIS":"6925.363","RA_OF_ASC_NODE":"251.7558","EPOCH":"2021-10-06T15:49:41.582784","CLASSIFICATION_TYPE":"U","BSTAR":"-0.00000464510000","TIME_SYSTEM":"UTC","ECCENTRICITY":"0.00014670","DECAY_DATE":null,"PERIAPSIS":"546.212","MEAN_MOTION":"15.06395274","TLE_LINE2":"2 47749  53.0552 251.7558 0001467  70.2552 289.8595 15.06395274 34448","OBJECT_TYPE":"PAYLOAD","SITE":"AFETR","PERIOD":"95.592","FILE":"3148521","MEAN_ANOMALY":"289.8595","MEAN_ELEMENT_THEORY":"SGP4","REV_AT_EPOCH":"3444","OBJECT_ID":"2021-017AD","REF_FRAME":"TEME","NORAD_CAT_ID":"47749","ARG_OF_PERICENTER":"70.2552","MEAN_MOTION_DOT":"-0.00000351","TLE_LINE1":"1 47749U 21017AD  21279.65950906 -.00000351  00000-0 -46451-5 0  9999","LAUNCH_DATE":"2021-03-04","RCS_SIZE":"MEDIUM"}];
